NORAD_CAT_ID,OBJECT_NAME,OBJECT_TYPE,EPOCH,MEAN_MOTION,ECCENTRICITY,INCLINATION,RA_OF_ASC_NODE,ARG_OF_PERICENTER,MEAN_ANOMALY,BSTAR,MEAN_MOTION_DOT,MEAN_MOTION_DDOT,TLE_LINE0,TLE_LINE1,TLE_LINE2,SEMIMAJOR_AXIS,PERIOD,APOGEE,PERIGEE,DECAYED
51132.0,STARLINK-3393,PAYLOAD,2022-09-16 17:18:47,15.08830162,0.0001823,53.2168,240.2439,45.5464,314.5677,9.4642e-05,1.218e-05,0.0,0 STARLINK-3393,1 51132U 22005AE  22259.72138630  .00001218  00000-0  94642-4 0  9992,2 51132  53.2168 240.2439 0001823  45.5464 314.5677 15.08830162 37002,6917.91,95.438,541.0369999999998,538.514,0.0
51132.0,STARLINK-3393,PAYLOAD,2022-09-17 04:26:30,15.08823332,0.0001875,53.2167,238.1623,48.9499,311.1655,1.764e-05,-7e-08,0.0,0 STARLINK-3393,1 51132U 22005AE  22260.18507581 -.00000007  00000-0  17640-4 0  9998,2 51132  53.2167 238.1623 0001875  48.9499 311.1655 15.08823332 38195,6917.931,95.439,541.0930000000002,538.499,0.0
51132.0,STARLINK-3393,PAYLOAD,2022-09-18 02:41:54,15.08835798,0.0001873,53.2169,233.9989,49.7367,310.3788,-2.178e-05,-6.35e-06,0.0,0 STARLINK-3393,1 51132U 22005AE  22261.11243383 -.00000635  00000-0 -21780-4 0  9997,2 51132  53.2169 233.9989 0001873  49.7367 310.3788 15.08835798 38339,6917.893,95.438,541.054,538.4630000000002,0.0
51132.0,STARLINK-3393,PAYLOAD,2022-09-18 05:52:40,15.08837363,0.0001945,53.217,233.4044,48.5323,311.5836,-8.1229e-06,-4.17e-06,0.0,0 STARLINK-3393,1 51132U 22005AE  22261.24491328 -.00000417  00000-0 -81229-5 0  9998,2 51132  53.2170 233.4044 0001945  48.5323 311.5836 15.08837363 37232,6917.888000000001,95.438,541.099,538.408,0.0
51132.0,STARLINK-3393,PAYLOAD,2022-09-18 15:24:58,15.0883941,0.000187,53.2171,231.6199,52.4219,307.6943,0.00011987,1.62e-05,0.0,0 STARLINK-3393,1 51132U 22005AE  22261.64234873  .00001620  00000-0  11987-3 0  9999,2 51132  53.2171 231.6199 0001870  52.4219 307.6943 15.08839410 37295,6917.882,95.438,541.0409999999998,538.4540000000002,0.0
51132.0,STARLINK-3393,PAYLOAD,2022-09-19 04:08:03,15.08845835,0.0001813,53.2175,229.24,53.4577,306.6582,0.0002497,3.689e-05,0.0,0 STARLINK-3393,1 51132U 22005AE  22262.17226190  .00003689  00000-0  24970-3 0  9994,2 51132  53.2175 229.2400 0001813  53.4577 306.6582 15.08845835 38491,6917.863,95.437,540.982,538.4730000000002,0.0
51132.0,STARLINK-3393,PAYLOAD,2022-09-19 15:15:46,15.08838106,0.0001561999999999,53.2167,227.1586,66.653,293.4626,0.00012867,1.76e-05,0.0,0 STARLINK-3393,1 51132U 22005AE  22262.63594910  .00001760  00000-0  12867-3 0  9993,2 51132  53.2167 227.1586 0001562  66.6530 293.4626 15.08838106 37449,6917.886,95.438,540.832,538.6709999999998,0.0
51132.0,STARLINK-3393,PAYLOAD,2022-09-20 03:58:50,15.08848885,0.0001806,53.2166,224.7831,53.0289,307.0868,0.00012561,1.712e-05,0.0,0 STARLINK-3393,1 51132U 22005AE  22263.16586301  .00001712  00000-0  12561-3 0  9995,2 51132  53.2166 224.7831 0001806  53.0289 307.0868 15.08848885 37520,6917.853,95.437,540.9680000000002,538.469,0.0
51132.0,STARLINK-3393,PAYLOAD,2022-09-20 16:41:56,15.08842872,0.0001876999999999,53.2173,222.4021,53.1003,307.0161,2.862e-05,1.67e-06,0.0,0 STARLINK-3393,1 51132U 22005AE  22263.69578771  .00000167  00000-0  28620-4 0  9992,2 51132  53.2173 222.4021 0001877  53.1003 307.0161 15.08842872 37602,6917.871999999999,95.437,541.035,538.438,0.0
51132.0,STARLINK-3393,PAYLOAD,2022-09-21 07:00:24,15.08840308,0.0001889,53.2175,219.726,53.0797,307.0368,-6.7962e-05,-1.3699999999999998e-05,0.0,0 STARLINK-3393,1 51132U 22005AE  22264.29195118 -.00001370  00000-0 -67962-4 0  9990,2 51132  53.2175 219.7260 0001889  53.0797 307.0368 15.08840308 37690,6917.879,95.438,541.0509999999998,538.438,0.0
51132.0,STARLINK-3393,PAYLOAD,2022-09-22 13:12:44,15.08836243,0.0001911,53.2177,214.0759,54.6119,305.5052,2.4621e-05,1.04e-06,0.0,0 STARLINK-3393,1 51132U 22005AE  22265.55051658  .00000104  00000-0  24621-4 0  9997,2 51132  53.2177 214.0759 0001911  54.6119 305.5052 15.08836243 39007,6917.892,95.438,541.0790000000002,538.435,0.0
51132.0,STARLINK-3393,PAYLOAD,2022-09-23 01:55:49,15.08839361,0.0001889,53.2174,211.6964,52.7536,307.3628,0.00013047,1.789e-05,0.0,0 STARLINK-3393,1 51132U 22005AE  22266.08042885  .00001789  00000-0  13047-3 0  9997,2 51132  53.2174 211.6964 0001889  52.7536 307.3628 15.08839361 39082,6917.882,95.438,541.054,538.441,0.0
51132.0,STARLINK-3393,PAYLOAD,2022-09-23 13:03:31,15.08836794,0.0001985,53.2176,209.616,54.528,305.5897,-9.9429e-06,-4.46e-06,0.0,0 STARLINK-3393,1 51132U 22005AE  22266.54411403 -.00000446  00000-0 -99429-5 0  9995,2 51132  53.2176 209.6160 0001985  54.5280 305.5897 15.08836794 38031,6917.89,95.438,541.128,538.382,0.0
51132.0,STARLINK-3393,PAYLOAD,2022-09-24 03:21:57,15.08768738,0.0002179,53.2168,206.9405,60.2879,299.833,0.00099396,0.00015536,0.0,0 STARLINK-3393,1 51132U 22005AE  22267.14024871  .00015536  00000-0  99396-3 0  9996,2 51132  53.2168 206.9405 0002179  60.2879 299.8330 15.08768738 39241,6918.098000000001,95.442,541.471,538.456,0.0
51132.0,STARLINK-3393,PAYLOAD,2022-09-24 06:32:43,15.08768858,0.0002262,53.2174,206.3454,64.4082,295.7144,0.0011495,0.00018018,0.0,0 STARLINK-3393,1 51132U 22005AE  22267.27272997  .00018018  00000-0  11495-2 0  9995,2 51132  53.2174 206.3454 0002262  64.4082 295.7144 15.08768858 38140,6918.098000000001,95.442,541.528,538.398,0.0
51132.0,STARLINK-3393,PAYLOAD,2022-09-25 03:12:46,15.08836784,0.0001938,53.2171,202.4797,59.8821,300.2363,0.00040516,6.165e-05,0.0,0 STARLINK-3393,1 51132U 22005AE  22268.13387031  .00006165  00000-0  40516-3 0  9994,2 51132  53.2171 202.4797 0001938  59.8821 300.2363 15.08836784 39399,6917.89,95.438,541.096,538.415,0.0
51132.0,STARLINK-3393,PAYLOAD,2022-09-25 04:48:09,15.08845467,0.0001961,53.2176,202.1822,53.096,307.0211,-3.0085e-07,-2.93e-06,0.0,0 STARLINK-3393,1 51132U 22005AE  22268.20010517 -.00000293  00000-0 -30085-6 0  9995,2 51132  53.2176 202.1822 0001961  53.0960 307.0211 15.08845467 38288,6917.864000000001,95.437,541.085,538.372,0.0
51132.0,STARLINK-3393,PAYLOAD,2022-09-26 12:35:52,15.0883647,0.0002031,53.2178,196.2346,54.8325,305.2857,-9.1623e-05,-1.746e-05,0.0,0 STARLINK-3393,1 51132U 22005AE  22269.52491252 -.00001746  00000-0 -91623-4 0  9997,2 51132  53.2178 196.2346 0002031  54.8325 305.2857 15.08836470 39604,6917.891,95.438,541.161,538.351,0.0
51132.0,STARLINK-3393,PAYLOAD,2022-09-27 01:18:58,15.08830857,0.0002012,53.2184,193.856,56.4027,303.7157,-2.7744e-05,-7.299999999999999e-06,0.0,0 STARLINK-3393,1 51132U 22005AE  22270.05484204 -.00000730  00000-0 -27744-4 0  9991,2 51132  53.2184 193.8560 0002012  56.4027 303.7157 15.08830857 39685,6917.908,95.438,541.165,538.381,0.0
51132.0,STARLINK-3393,PAYLOAD,2022-09-27 12:26:39,15.08839499,0.0001865,53.2197,191.7719,63.6067,296.5116,0.00011127,1.483e-05,0.0,0 STARLINK-3393,1 51132U 22005AE  22270.51851371  .00001483  00000-0  11127-3 0  9996,2 51132  53.2197 191.7719 0001865  63.6067 296.5116 15.08839499 39754,6917.882,95.438,541.0369999999998,538.457,0.0
51132.0,STARLINK-3393,PAYLOAD,2022-09-28 01:09:43,15.08855777,0.0001817,53.2175,189.3951,56.2458,303.8707,0.00025826,3.826e-05,0.0,0 STARLINK-3393,1 51132U 22005AE  22271.04841883  .00003826  00000-0  25826-3 0  9996,2 51132  53.2175 189.3951 0001817  56.2458 303.8707 15.08855777 39834,6917.831999999999,95.437,540.9540000000002,538.44,0.0
51132.0,STARLINK-3393,PAYLOAD,2022-09-28 12:17:24,15.0886024,0.0001834,53.2176,187.3137,56.7996,303.3172,0.00028145,4.196e-05,0.0,0 STARLINK-3393,1 51132U 22005AE  22271.51209353  .00004196  00000-0  28145-3 0  9996,2 51132  53.2176 187.3137 0001834  56.7996 303.3172 15.08860240 38785,6917.819,95.436,540.952,538.415,0.0
51132.0,STARLINK-3393,PAYLOAD,2022-09-28 18:38:59,15.0884452,0.0002009999999999,53.2185,186.1246,57.8469,302.2718,0.0002295999999999,3.368e-05,0.0,0 STARLINK-3393,1 51132U 22005AE  22271.77707293  .00003368  00000-0  22960-3 0  9999,2 51132  53.2185 186.1246 0002010  57.8469 302.2718 15.08844520 38829,6917.8669999999975,95.437,541.122,538.341,0.0
51132.0,STARLINK-3393,PAYLOAD,2022-09-29 01:00:31,15.08852728,0.0001791,53.2168,184.9358,50.2917,309.8233,0.00028026,4.177e-05,0.0,0 STARLINK-3393,1 51132U 22005AE  22272.04202932  .00004177  00000-0  28026-3 0  9998,2 51132  53.2168 184.9358 0001791  50.2917 309.8233 15.08852728 38868,6917.840999999999,95.437,540.945,538.467,0.0
51132.0,STARLINK-3393,PAYLOAD,2022-09-29 18:29:45,15.08850309,0.0001947,53.2167,181.6648,51.4502,308.6664,0.0002713,4.033e-05,0.0,0 STARLINK-3393,1 51132U 22005AE  22272.77066658  .00004033  00000-0  27130-3 0  9997,2 51132  53.2167 181.6648 0001947  51.4502 308.6664 15.08850309 38979,6917.849,95.437,541.061,538.367,0.0
51132.0,STARLINK-3393,PAYLOAD,2022-09-30 00:51:17,15.08853584,0.0001778,53.2166,180.4753,50.2159,309.8989,0.00017366,2.478e-05,0.0,0 STARLINK-3393,1 51132U 22005AE  22273.03562366  .00002478  00000-0  17366-3 0  9995,2 51132  53.2166 180.4753 0001778  50.2159 309.8989 15.08853584 40131,6917.839,95.437,540.934,538.474,0.0
51132.0,STARLINK-3393,PAYLOAD,2022-09-30 10:23:36,15.088443599999998,0.0001792,53.2165,178.6915,48.4644,311.6501,2.8824e-05,1.71e-06,0.0,0 STARLINK-3393,1 51132U 22005AE  22273.43306597  .00000171  00000-0  28824-4 0  9991,2 51132  53.2165 178.6915 0001792  48.4644 311.6501 15.08844360 40192,6917.8669999999975,95.437,540.972,538.492,0.0
51132.0,STARLINK-3393,PAYLOAD,2022-09-30 18:20:32,15.08842109,0.0001629999999999,53.2176,177.2029,52.8263,307.2878,5.5161e-05,5.9e-06,0.0,0 STARLINK-3393,1 51132U 22005AE  22273.76426648  .00000590  00000-0  55161-4 0  9996,2 51132  53.2176 177.2029 0001630  52.8263 307.2878 15.08842109 39120,6917.874,95.437,540.867,538.611,0.0
51132.0,STARLINK-3393,PAYLOAD,2022-10-01 10:14:24,15.08842182,0.0001791,53.2167,174.2312,47.5789,312.5355,6.3505e-05,7.23e-06,0.0,0 STARLINK-3393,1 51132U 22005AE  22274.42666717  .00000723  00000-0  63505-4 0  9992,2 51132  53.2167 174.2312 0001791  47.5789 312.5355 15.08842182 39225,6917.874,95.437,540.9780000000002,538.5,0.0
